{
  "type": "FeatureCollection",
  "features": [
    {
      "type": "Feature",
      "properties": {
        "norad_id": 41772,
        "name": "SKYSAT-C5",
        "group": "resource",
        "lat": -14.118652681727573,
        "lon": 32.03947404816153,
        "alt_km": 465.8792347262979,
        "timestamp": "2025-12-12T11:38:31.073645+00:00",
        "meta_object_name": "SKYSAT-C5",
        "meta_object_id": "2016-058C",
        "meta_epoch": "2025-12-11T13:47:56.889600",
        "meta_mean_motion": 15.34906129,
        "meta_eccentricity": 4.67e-05,
        "meta_inclination": 97.0751,
        "meta_ra_of_asc_node": 29.3759,
        "meta_arg_of_pericenter": 257.3192,
        "meta_mean_anomaly": 102.8,
        "meta_ephemeris_type": 0,
        "meta_classification_type": "U",
        "meta_norad_cat_id": 41772,
        "meta_element_set_no": 999,
        "meta_rev_at_epoch": 51498,
        "meta_bstar": 0.00046261,
        "meta_mean_motion_dot": 0.00015598,
        "meta_mean_motion_ddot": 0,
        "tle_line1": "1 41772U 16058C   25345.57496400  .00015598  00000+0  46261-3 0  9994",
        "tle_line2": "2 41772  97.0751  29.3759 0000467 257.3192 102.8000 15.34906129514981"
      },
      "geometry": {
        "type": "Point",
        "coordinates": [
          32.03947404816153,
          -14.118652681727573
        ]
      }
    },
    {
      "type": "Feature",
      "properties": {
        "norad_id": 41773,
        "name": "SKYSAT-C2",
        "group": "resource",
        "lat": -4.668735958836047,
        "lon": 11.600613420808035,
        "alt_km": 455.63667881584934,
        "timestamp": "2025-12-12T11:38:31.073654+00:00",
        "meta_object_name": "SKYSAT-C2",
        "meta_object_id": "2016-058D",
        "meta_epoch": "2025-12-12T00:43:35.830848",
        "meta_mean_motion": 15.37243964,
        "meta_eccentricity": 0.0004321,
        "meta_inclination": 97.0369,
        "meta_ra_of_asc_node": 10.587,
        "meta_arg_of_pericenter": 36.2464,
        "meta_mean_anomaly": 323.9073,
        "meta_ephemeris_type": 0,
        "meta_classification_type": "U",
        "meta_norad_cat_id": 41773,
        "meta_element_set_no": 999,
        "meta_rev_at_epoch": 51625,
        "meta_bstar": 0.00047659,
        "meta_mean_motion_dot": 0.00017332,
        "meta_mean_motion_ddot": 0,
        "tle_line1": "1 41773U 16058D   25346.03027582  .00017332  00000+0  47659-3 0  9998",
        "tle_line2": "2 41773  97.0369  10.5870 0004321  36.2464 323.9073 15.37243964516254"
      },
      "geometry": {
        "type": "Point",
        "coordinates": [
          11.600613420808035,
          -4.668735958836047
        ]
      }
    },
    {
      "type": "Feature",
      "properties": {
        "norad_id": 41774,
        "name": "SKYSAT-C3",
        "group": "resource",
        "lat": 2.2969289293594803,
        "lon": -159.47777621709955,
        "alt_km": 435.68598904375176,
        "timestamp": "2025-12-12T11:38:31.073665+00:00",
        "meta_object_name": "SKYSAT-C3",
        "meta_object_id": "2016-058E",
        "meta_epoch": "2025-12-12T01:32:43.071360",
        "meta_mean_motion": 15.44357014,
        "meta_eccentricity": 0.0001623,
        "meta_inclination": 96.9305,
        "meta_ra_of_asc_node": 19.8415,
        "meta_arg_of_pericenter": 107.5379,
        "meta_mean_anomaly": 252.6048,
        "meta_ephemeris_type": 0,
        "meta_classification_type": "U",
        "meta_norad_cat_id": 41774,
        "meta_element_set_no": 999,
        "meta_rev_at_epoch": 51715,
        "meta_bstar": 0.00054673,
        "meta_mean_motion_dot": 0.00025186,
        "meta_mean_motion_ddot": 0,
        "tle_line1": "1 41774U 16058E   25346.06438740  .00025186  00000+0  54673-3 0  9994",
        "tle_line2": "2 41774  96.9305  19.8415 0001623 107.5379 252.6048 15.44357014517159"
      },
      "geometry": {
        "type": "Point",
        "coordinates": [
          -159.47777621709955,
          2.2969289293594803
        ]
      }
    },
    {
      "type": "Feature",
      "properties": {
        "norad_id": 41785,
        "name": "ALSAT 1B",
        "group": "resource",
        "lat": 75.53761487924498,
        "lon": -149.69549111167368,
        "alt_km": 639.7682161200964,
        "timestamp": "2025-12-12T11:38:31.073675+00:00",
        "meta_object_name": "ALSAT 1B",
        "meta_object_id": "2016-059C",
        "meta_epoch": "2025-12-12T04:39:16.341696",
        "meta_mean_motion": 14.72073815,
        "meta_eccentricity": 0.00107,
        "meta_inclination": 97.7816,
        "meta_ra_of_asc_node": 358.0071,
        "meta_arg_of_pericenter": 104.5136,
        "meta_mean_anomaly": 255.726,
        "meta_ephemeris_type": 0,
        "meta_classification_type": "U",
        "meta_norad_cat_id": 41785,
        "meta_element_set_no": 999,
        "meta_rev_at_epoch": 49306,
        "meta_bstar": 0.00010611,
        "meta_mean_motion_dot": 6.2e-06,
        "meta_mean_motion_ddot": 0,
        "tle_line1": "1 41785U 16059C   25346.19393914  .00000620  00000+0  10611-3 0  9994",
        "tle_line2": "2 41785  97.7816 358.0071 0010700 104.5136 255.7260 14.72073815493064"
      },
      "geometry": {
        "type": "Point",
        "coordinates": [
          -149.69549111167368,
          75.53761487924498
        ]
      }
    },
    {
      "type": "Feature",
      "properties": {
        "norad_id": 41787,
        "name": "PATHFINDER 1",
        "group": "resource",
        "lat": -5.551457233031605,
        "lon": 168.5057331037712,
        "alt_km": 678.2496457932175,
        "timestamp": "2025-12-12T11:38:31.073685+00:00",
        "meta_object_name": "PATHFINDER 1",
        "meta_object_id": "2016-059E",
        "meta_epoch": "2025-12-11T23:20:45.576672",
        "meta_mean_motion": 14.67319027,
        "meta_eccentricity": 0.0030047,
        "meta_inclination": 97.8139,
        "meta_ra_of_asc_node": 348.7819,
        "meta_arg_of_pericenter": 83.5355,
        "meta_mean_anomaly": 276.927,
        "meta_ephemeris_type": 0,
        "meta_classification_type": "U",
        "meta_norad_cat_id": 41787,
        "meta_element_set_no": 999,
        "meta_rev_at_epoch": 49225,
        "meta_bstar": 0.0002355,
        "meta_mean_motion_dot": 1.291e-05,
        "meta_mean_motion_ddot": 0,
        "tle_line1": "1 41787U 16059E   25345.97274973  .00001291  00000+0  23550-3 0  9995",
        "tle_line2": "2 41787  97.8139 348.7819 0030047  83.5355 276.9270 14.67319027492254"
      },
      "geometry": {
        "type": "Point",
        "coordinates": [
          168.5057331037712,
          -5.551457233031605
        ]
      }
    },
    {
      "type": "Feature",
      "properties": {
        "norad_id": 41790,
        "name": "SCATSAT 1",
        "group": "resource",
        "lat": 12.26617197865003,
        "lon": -135.06321484098717,
        "alt_km": 603.1082092706647,
        "timestamp": "2025-12-12T11:38:31.073695+00:00",
        "meta_object_name": "SCATSAT 1",
        "meta_object_id": "2016-059H",
        "meta_epoch": "2025-12-12T02:46:20.070912",
        "meta_mean_motion": 14.78933776,
        "meta_eccentricity": 0.0056243,
        "meta_inclination": 98.1465,
        "meta_ra_of_asc_node": 42.7779,
        "meta_arg_of_pericenter": 129.9634,
        "meta_mean_anomaly": 230.6536,
        "meta_ephemeris_type": 0,
        "meta_classification_type": "U",
        "meta_norad_cat_id": 41790,
        "meta_element_set_no": 999,
        "meta_rev_at_epoch": 7393,
        "meta_bstar": 0.00037195,
        "meta_mean_motion_dot": 2.761e-05,
        "meta_mean_motion_ddot": 0,
        "tle_line1": "1 41790U 16059H   25346.11551008  .00002761  00000+0  37195-3 0  9996",
        "tle_line2": "2 41790  98.1465  42.7779 0056243 129.9634 230.6536 14.78933776 73938"
      },
      "geometry": {
        "type": "Point",
        "coordinates": [
          -135.06321484098717,
          12.26617197865003
        ]
      }
    },
    {
      "type": "Feature",
      "properties": {
        "norad_id": 41875,
        "name": "GOKTURK 1A",
        "group": "resource",
        "lat": -81.13255110777828,
        "lon": -7.735936564796696,
        "alt_km": 692.4270831508711,
        "timestamp": "2025-12-12T11:38:31.073706+00:00",
        "meta_object_name": "GOKTURK 1A",
        "meta_object_id": "2016-073A",
        "meta_epoch": "2025-12-12T05:30:08.214336",
        "meta_mean_motion": 14.62780033,
        "meta_eccentricity": 0.0001248,
        "meta_inclination": 98.1424,
        "meta_ra_of_asc_node": 238.6012,
        "meta_arg_of_pericenter": 78.1591,
        "meta_mean_anomaly": 281.975,
        "meta_ephemeris_type": 0,
        "meta_classification_type": "U",
        "meta_norad_cat_id": 41875,
        "meta_element_set_no": 999,
        "meta_rev_at_epoch": 48149,
        "meta_bstar": 0.00024276,
        "meta_mean_motion_dot": 1.191e-05,
        "meta_mean_motion_ddot": 0,
        "tle_line1": "1 41875U 16073A   25346.22926174  .00001191  00000+0  24276-3 0  9990",
        "tle_line2": "2 41875  98.1424 238.6012 0001248  78.1591 281.9750 14.62780033481495"
      },
      "geometry": {
        "type": "Point",
        "coordinates": [
          -7.735936564796696,
          -81.13255110777828
        ]
      }
    }
  ]
}